start=new Date('2022-04-09T00:00:00.000Z').valueOf();
sats=[{"EPOCH":"2022-04-08T04:42:33.395904","ECCENTRICITY":"0.00017380","FILE":"3393517","COUNTRY_CODE":"US","CENTER_NAME":"EARTH","ARG_OF_PERICENTER":"56.7313","MEAN_ELEMENT_THEORY":"SGP4","PERIOD":"95.592","ELEMENT_SET_NO":"999","EPHEMERIS_TYPE":"0","REF_FRAME":"TEME","OBJECT_NAME":"STARLINK-2521","GP_ID":"200748802","DECAY_DATE":null,"LAUNCH_DATE":"2021-05-26","TLE_LINE2":"2 48648  53.0569  67.8487 0001738  56.7313 303.3842 15.06398654 47959","REV_AT_EPOCH":"4795","CLASSIFICATION_TYPE":"U","TLE_LINE1":"1 48648U 21044L   22098.19621986  .00001299  00000-0  10611-3 0  9997","MEAN_ANOMALY":"303.3842","OBJECT_TYPE":"PAYLOAD","SEMIMAJOR_AXIS":"6925.353","RCS_SIZE":"LARGE","BSTAR":"0.00010611000000","APOAPSIS":"548.421","MEAN_MOTION_DDOT":"0.0000000000000","SITE":"AFETR","RA_OF_ASC_NODE":"67.8487","MEAN_MOTION":"15.06398654","TIME_SYSTEM":"UTC","NORAD_CAT_ID":"48648","MEAN_MOTION_DOT":"0.00001299","INCLINATION":"53.0569","OBJECT_ID":"2021-044L","PERIAPSIS":"546.014"},{"MEAN_ANOMALY":"309.6425","TLE_LINE1":"1 48649U 21044M   22098.39250737  .00003129  00000-0  22885-3 0  9992","REV_AT_EPOCH":"4797","TLE_LINE2":"2 48649  53.0551  66.9536 0001776  50.4721 309.6425 15.06406175 47978","CLASSIFICATION_TYPE":"U","DECAY_DATE":null,"GP_ID":"200748050","LAUNCH_DATE":"2021-05-26","REF_FRAME":"TEME","OBJECT_NAME":"STARLINK-2673","ELEMENT_SET_NO":"999","EPHEMERIS_TYPE":"0","CENTER_NAME":"EARTH","ARG_OF_PERICENTER":"50.4721","MEAN_ELEMENT_THEORY":"SGP4","PERIOD":"95.592","EPOCH":"2022-04-08T09:25:12.636768","ECCENTRICITY":"0.00017760","FILE":"3393517","COUNTRY_CODE":"US","PERIAPSIS":"545.965","OBJECT_ID":"2021-044M","NORAD_CAT_ID":"48649","MEAN_MOTION_DOT":"0.00003129","INCLINATION":"53.0551","MEAN_MOTION":"15.06406175","RA_OF_ASC_NODE":"66.9536","TIME_SYSTEM":"UTC","SITE":"AFETR","BSTAR":"0.00022885000000","APOAPSIS":"548.425","MEAN_MOTION_DDOT":"0.0000000000000","OBJECT_TYPE":"PAYLOAD","SEMIMAJOR_AXIS":"6925.330","RCS_SIZE":"LARGE"},{"RCS_SIZE":"LARGE","OBJECT_TYPE":"PAYLOAD","SEMIMAJOR_AXIS":"6925.309","SITE":"AFETR","APOAPSIS":"548.220","MEAN_MOTION_DDOT":"0.0000000000000","BSTAR":"0.00055408000000","MEAN_MOTION_DOT":"0.00007984","INCLINATION":"53.0555","NORAD_CAT_ID":"48650","TIME_SYSTEM":"UTC","RA_OF_ASC_NODE":"66.9814","MEAN_MOTION":"15.06412921","PERIAPSIS":"546.128","OBJECT_ID":"2021-044N","MEAN_ELEMENT_THEORY":"SGP4","PERIOD":"95.591","ARG_OF_PERICENTER":"76.2694","CENTER_NAME":"EARTH","COUNTRY_CODE":"US","FILE":"3393517","EPOCH":"2022-04-08T09:19:55.040736","ECCENTRICITY":"0.00015110","OBJECT_NAME":"STARLINK-2672","REF_FRAME":"TEME","EPHEMERIS_TYPE":"0","ELEMENT_SET_NO":"999","CLASSIFICATION_TYPE":"U","REV_AT_EPOCH":"4797","TLE_LINE2":"2 48650  53.0555  66.9814 0001511  76.2694 283.8463 15.06412921 47976","LAUNCH_DATE":"2021-05-26","DECAY_DATE":null,"GP_ID":"200748300","MEAN_ANOMALY":"283.8463","TLE_LINE1":"1 48650U 21044N   22098.38883149  .00007984  00000-0  55408-3 0  9992"},{"TLE_LINE1":"1 48651U 21044P   22098.18610505  .00002433  00000-0  18218-3 0  9997","MEAN_ANOMALY":"299.3187","LAUNCH_DATE":"2021-05-26","GP_ID":"200748552","DECAY_DATE":null,"CLASSIFICATION_TYPE":"U","TLE_LINE2":"2 48651  53.0568  67.8935 0001571  60.7959 299.3187 15.06402410 47947","REV_AT_EPOCH":"4794","EPHEMERIS_TYPE":"0","ELEMENT_SET_NO":"999","OBJECT_NAME":"STARLINK-2731","REF_FRAME":"TEME","COUNTRY_CODE":"US","FILE":"3393517","ECCENTRICITY":"0.00015710","EPOCH":"2022-04-08T04:27:59.476320","PERIOD":"95.592","MEAN_ELEMENT_THEORY":"SGP4","ARG_OF_PERICENTER":"60.7959","CENTER_NAME":"EARTH","OBJECT_ID":"2021-044P","PERIAPSIS":"546.118","TIME_SYSTEM":"UTC","RA_OF_ASC_NODE":"67.8935","MEAN_MOTION":"15.06402410","INCLINATION":"53.0568","MEAN_MOTION_DOT":"0.00002433","NORAD_CAT_ID":"48651","APOAPSIS":"548.294","MEAN_MOTION_DDOT":"0.0000000000000","BSTAR":"0.00018218000000","SITE":"AFETR","RCS_SIZE":"LARGE","SEMIMAJOR_AXIS":"6925.341","OBJECT_TYPE":"PAYLOAD"},{"RA_OF_ASC_NODE":"64.6320","MEAN_MOTION":"15.06403395","TIME_SYSTEM":"UTC","NORAD_CAT_ID":"48652","MEAN_MOTION_DOT":"0.00001331","INCLINATION":"53.0560","OBJECT_ID":"2021-044Q","PERIAPSIS":"546.119","OBJECT_TYPE":"PAYLOAD","SEMIMAJOR_AXIS":"6925.338","RCS_SIZE":"LARGE","BSTAR":"0.00010824000000","APOAPSIS":"548.287","MEAN_MOTION_DDOT":"0.0000000000000","SITE":"AFETR","DECAY_DATE":null,"GP_ID":"200784040","LAUNCH_DATE":"2021-05-26","REV_AT_EPOCH":"4805","TLE_LINE2":"2 48652  53.0560  64.6320 0001565  70.7995 289.3163 15.06403395 48056","CLASSIFICATION_TYPE":"U","TLE_LINE1":"1 48652U 21044Q   22098.91223339  .00001331  00000-0  10824-3 0  9995","MEAN_ANOMALY":"289.3163","EPOCH":"2022-04-08T21:53:36.964896","ECCENTRICITY":"0.00015650","FILE":"3393990","COUNTRY_CODE":"US","ARG_OF_PERICENTER":"70.7995","CENTER_NAME":"EARTH","MEAN_ELEMENT_THEORY":"SGP4","PERIOD":"95.592","ELEMENT_SET_NO":"999","EPHEMERIS_TYPE":"0","REF_FRAME":"TEME","OBJECT_NAME":"STARLINK-2727"},{"SITE":"AFETR","BSTAR":"0.00014671000000","MEAN_MOTION_DDOT":"0.0000000000000","APOAPSIS":"548.205","SEMIMAJOR_AXIS":"6925.334","OBJECT_TYPE":"PAYLOAD","RCS_SIZE":"LARGE","PERIAPSIS":"546.192","OBJECT_ID":"2021-044R","NORAD_CAT_ID":"48653","INCLINATION":"53.0552","MEAN_MOTION_DOT":"0.00001905","MEAN_MOTION":"15.06404897","RA_OF_ASC_NODE":"65.8363","TIME_SYSTEM":"UTC","REF_FRAME":"TEME","OBJECT_NAME":"STARLINK-2720","ELEMENT_SET_NO":"999","EPHEMERIS_TYPE":"0","ARG_OF_PERICENTER":"48.6594","CENTER_NAME":"EARTH","PERIOD":"95.592","MEAN_ELEMENT_THEORY":"SGP4","ECCENTRICITY":"0.00014530","EPOCH":"2022-04-08T15:26:08.860704","COUNTRY_CODE":"US","FILE":"3393990","MEAN_ANOMALY":"311.4520","TLE_LINE1":"1 48653U 21044R   22098.64315811  .00001905  00000-0  14671-3 0  9994","TLE_LINE2":"2 48653  53.0552  65.8363 0001453  48.6594 311.4520 15.06404897 48011","REV_AT_EPOCH":"4801","CLASSIFICATION_TYPE":"U","DECAY_DATE":null,"GP_ID":"200782788","LAUNCH_DATE":"2021-05-26"},{"LAUNCH_DATE":"2021-05-26","DECAY_DATE":null,"GP_ID":"200782539","CLASSIFICATION_TYPE":"U","TLE_LINE2":"2 48654  53.0556  65.8542 0001396  79.9368 280.1779 15.06406058 48016","REV_AT_EPOCH":"4801","TLE_LINE1":"1 48654U 21044S   22098.63947059  .00002122  00000-0  16128-3 0  9990","MEAN_ANOMALY":"280.1779","FILE":"3393990","COUNTRY_CODE":"US","ECCENTRICITY":"0.00013960","EPOCH":"2022-04-08T15:20:50.258976","PERIOD":"95.592","MEAN_ELEMENT_THEORY":"SGP4","ARG_OF_PERICENTER":"79.9368","CENTER_NAME":"EARTH","EPHEMERIS_TYPE":"0","ELEMENT_SET_NO":"999","OBJECT_NAME":"STARLINK-2651","REF_FRAME":"TEME","TIME_SYSTEM":"UTC","RA_OF_ASC_NODE":"65.8542","MEAN_MOTION":"15.06406058","INCLINATION":"53.0556","MEAN_MOTION_DOT":"0.00002122","NORAD_CAT_ID":"48654","OBJECT_ID":"2021-044S","PERIAPSIS":"546.228","RCS_SIZE":"LARGE","SEMIMAJOR_AXIS":"6925.330","OBJECT_TYPE":"PAYLOAD","APOAPSIS":"548.162","MEAN_MOTION_DDOT":"0.0000000000000","BSTAR":"0.00016128000000","SITE":"AFETR"},{"OBJECT_ID":"2021-044T","PERIAPSIS":"546.107","TIME_SYSTEM":"UTC","RA_OF_ASC_NODE":"65.8805","MEAN_MOTION":"15.06408037","MEAN_MOTION_DOT":"0.00002808","INCLINATION":"53.0558","NORAD_CAT_ID":"48655","MEAN_MOTION_DDOT":"0.0000000000000","APOAPSIS":"548.271","BSTAR":"0.00020727000000","SITE":"AFETR","RCS_SIZE":"LARGE","OBJECT_TYPE":"PAYLOAD","SEMIMAJOR_AXIS":"6925.324","TLE_LINE1":"1 48655U 21044T   22098.63578738  .00002808  00000-0  20727-3 0  9996","MEAN_ANOMALY":"288.7330","LAUNCH_DATE":"2021-05-26","GP_ID":"200783790","DECAY_DATE":null,"CLASSIFICATION_TYPE":"U","REV_AT_EPOCH":"4801","TLE_LINE2":"2 48655  53.0558  65.8805 0001562  71.3828 288.7330 15.06408037 48019","EPHEMERIS_TYPE":"0","ELEMENT_SET_NO":"999","OBJECT_NAME":"STARLINK-2657","REF_FRAME":"TEME","FILE":"3393990","COUNTRY_CODE":"US","EPOCH":"2022-04-08T15:15:32.029632","ECCENTRICITY":"0.00015620","MEAN_ELEMENT_THEORY":"SGP4","PERIOD":"95.592","ARG_OF_PERICENTER":"71.3828","CENTER_NAME":"EARTH"},{"OBJECT_NAME":"STARLINK-2701","REF_FRAME":"TEME","EPHEMERIS_TYPE":"0","ELEMENT_SET_NO":"999","MEAN_ELEMENT_THEORY":"SGP4","PERIOD":"95.592","CENTER_NAME":"EARTH","ARG_OF_PERICENTER":"65.3237","COUNTRY_CODE":"US","FILE":"3393990","EPOCH":"2022-04-08T15:10:13.462464","ECCENTRICITY":"0.00015350","MEAN_ANOMALY":"294.7911","TLE_LINE1":"1 48656U 21044U   22098.63210026  .00003447  00000-0  25012-3 0  9992","CLASSIFICATION_TYPE":"U","REV_AT_EPOCH":"4801","TLE_LINE2":"2 48656  53.0560  65.8869 0001535  65.3237 294.7911 15.06406979 48015","LAUNCH_DATE":"2021-05-26","DECAY_DATE":null,"GP_ID":"200783541","SITE":"AFETR","APOAPSIS":"548.255","MEAN_MOTION_DDOT":"0.0000000000000","BSTAR":"0.00025012000000","RCS_SIZE":"LARGE","OBJECT_TYPE":"PAYLOAD","SEMIMAJOR_AXIS":"6925.327","PERIAPSIS":"546.129","OBJECT_ID":"2021-044U","MEAN_MOTION_DOT":"0.00003447","INCLINATION":"53.0560","NORAD_CAT_ID":"48656","TIME_SYSTEM":"UTC","MEAN_MOTION":"15.06406979","RA_OF_ASC_NODE":"65.8869"},{"OBJECT_NAME":"STARLINK-2734","REF_FRAME":"TEME","EPHEMERIS_TYPE":"0","ELEMENT_SET_NO":"999","PERIOD":"95.592","MEAN_ELEMENT_THEORY":"SGP4","ARG_OF_PERICENTER":"66.4035","CENTER_NAME":"EARTH","COUNTRY_CODE":"US","FILE":"3393990","ECCENTRICITY":"0.00015520","EPOCH":"2022-04-08T15:04:54.954048","MEAN_ANOMALY":"293.7117","TLE_LINE1":"1 48657U 21044V   22098.62841382  .00002903  00000-0  21368-3 0  9993","CLASSIFICATION_TYPE":"U","TLE_LINE2":"2 48657  53.0560  65.9060 0001552  66.4035 293.7117 15.06405200 48010","REV_AT_EPOCH":"4801","LAUNCH_DATE":"2021-05-26","GP_ID":"200782289","DECAY_DATE":null,"SITE":"AFETR","APOAPSIS":"548.272","MEAN_MOTION_DDOT":"0.0000000000000","BSTAR":"0.00021368000000","RCS_SIZE":"LARGE","SEMIMAJOR_AXIS":"6925.333","OBJECT_TYPE":"PAYLOAD","PERIAPSIS":"546.123","OBJECT_ID":"2021-044V","INCLINATION":"53.0560","MEAN_MOTION_DOT":"0.00002903","NORAD_CAT_ID":"48657","TIME_SYSTEM":"UTC","RA_OF_ASC_NODE":"65.9060","MEAN_MOTION":"15.06405200"}];
